NORAD_CAT_ID,OBJECT_NAME,OBJECT_TYPE,EPOCH,MEAN_MOTION,ECCENTRICITY,INCLINATION,RA_OF_ASC_NODE,ARG_OF_PERICENTER,MEAN_ANOMALY,BSTAR,MEAN_MOTION_DOT,MEAN_MOTION_DDOT,TLE_LINE0,TLE_LINE1,TLE_LINE2,SEMIMAJOR_AXIS,PERIOD,APOGEE,PERIGEE,DECAYED
53738.0,STARLINK-4662,PAYLOAD,2022-09-23 06:00:00,15.73174946,0.0001167999999999,53.2144,183.2993,107.0083,214.0378,0.00041257,0.00057617,0.0,0 STARLINK-4662,1 53738U 22107AQ  22266.25001157  .00057617  00000-0  41257-3 0  9995,2 53738  53.2144 183.2993 0001168 107.0083 214.0378 15.73174946  2966,6727.967,91.535,350.617,349.046,0.0
53738.0,STARLINK-4662,PAYLOAD,2022-09-23 14:00:01,15.73173664,0.0001153,53.2148,181.6477,124.0426,285.9501,0.00024822,0.00034319,0.0,0 STARLINK-4662,1 53738U 22107AQ  22266.58334491  .00034319  00000-0  24822-3 0  9994,2 53738  53.2148 181.6477 0001153 124.0426 285.9501 15.73173664  1301,6727.97,91.535,350.611,349.06,0.0
53738.0,STARLINK-4662,PAYLOAD,2022-09-23 20:00:01,15.73202194,0.0001183,53.215,180.4107,122.0845,264.648,0.00027054,0.00037522,0.0,0 STARLINK-4662,1 53738U 22107AQ  22266.83335648  .00037522  00000-0  27054-3 0  9996,2 53738  53.2150 180.4107 0001183 122.0845 264.6480 15.73202194  3052,6727.889,91.533,350.55,348.958,0.0
53738.0,STARLINK-4662,PAYLOAD,2022-09-24 14:00:01,15.73239091,0.0001195,53.2144,176.6988,126.8381,190.0973,0.00027951,0.00038854,0.0,0 STARLINK-4662,1 53738U 22107AQ  22267.58335648  .00038854  00000-0  27951-3 0  9994,2 53738  53.2144 176.6988 0001195 126.8381 190.0973 15.73239091  1300,6727.784000000002,91.531,350.45300000000015,348.845,0.0
53738.0,STARLINK-4662,PAYLOAD,2022-09-24 22:00:00,15.73373543,0.000108,53.2162,175.05,126.9813,278.8626,-0.0026424,-0.00358735,0.0,0 STARLINK-4662,1 53738U 22107AQ  22267.91667824 -.00358735  00000-0 -26424-2 0  9993,2 53738  53.2162 175.0500 0001080 126.9813 278.8626 15.73373543  1308,6727.4,91.523,349.992,348.539,0.0
53738.0,STARLINK-4662,PAYLOAD,2022-09-25 06:00:00,15.73170438,0.0001234,53.2162,173.4016,126.4594,8.269,-0.0047405,-0.00618371,0.0,0 STARLINK-4662,1 53738U 22107AQ  22268.25001157 -.00618371  00000-0 -47405-2 0  9999,2 53738  53.2162 173.4016 0001234 126.4594   8.2690 15.73170438  3287,6727.979,91.535,350.675,349.014,0.0
53738.0,STARLINK-4662,PAYLOAD,2022-09-25 14:00:01,15.72777792,0.0001452,53.2174,171.7501,132.5113,90.8595,-0.0096032,-0.01175804,0.0,0 STARLINK-4662,1 53738U 22107AQ  22268.58334491 -.01175804  00000-0 -96032-2 0  9995,2 53738  53.2174 171.7501 0001452 132.5113  90.8595 15.72777792  3339,6729.099,91.558,351.941,349.987,0.0
53738.0,STARLINK-4662,PAYLOAD,2022-09-25 22:00:01,15.71921737,0.0001127999999999,53.2176,170.1039,113.9172,197.4138,-0.009976,-0.01197146,0.0,0 STARLINK-4662,1 53738U 22107AQ  22268.91668981 -.01197146  00000-0 -99760-2 0  9990,2 53738  53.2176 170.1039 0001128 113.9172 197.4138 15.71921737  1309,6731.542,91.608,354.166,352.648,0.0
53738.0,STARLINK-4662,PAYLOAD,2022-09-26 10:00:00,15.70637236,0.0001254,53.2173,167.6361,118.0724,143.1062,-0.010559,-0.01199642,0.0,0 STARLINK-4662,1 53738U 22107AQ  22269.41667824 -.01199642  00000-0 -10559-1 0  9992,2 53738  53.2173 167.6361 0001254 118.0724 143.1062 15.70637236  3464,6735.212,91.683,357.921,356.232,0.0
53738.0,STARLINK-4662,PAYLOAD,2022-09-26 14:00:01,15.70205999,0.0001149999999999,53.2173,166.8139,109.151,14.8179,-0.0107,-0.01194299,0.0,0 STARLINK-4662,1 53738U 22107AQ  22269.58334491 -.01194299  00000-0 -10700-1 0  9992,2 53738  53.2173 166.8139 0001150 109.1510  14.8179 15.70205999  1308,6736.445,91.708,359.084,357.535,0.0
53738.0,STARLINK-4662,PAYLOAD,2022-09-26 22:00:00,15.6937933,0.0001384,53.2171,165.174,120.574,88.1834,-0.011462,-0.01231752,0.0,0 STARLINK-4662,1 53738U 22107AQ  22269.91667824 -.01231752  00000-0 -11462-1 0  9990,2 53738  53.2171 165.1740 0001384 120.5740  88.1834 15.69379330  1308,6738.81,91.756,361.608,359.74300000000005,0.0
53738.0,STARLINK-4662,PAYLOAD,2022-09-27 06:00:00,15.68512967,0.0001242999999999,53.2165,163.5359,121.404,171.1341,-0.011762,-0.01220438,0.0,0 STARLINK-4662,1 53738U 22107AQ  22270.25001157 -.01220438  00000-0 -11762-1 0  9992,2 53738  53.2165 163.5359 0001243 121.4040 171.1341 15.68512967  3599,6741.291,91.807,363.994,362.318,0.0
53738.0,STARLINK-4662,PAYLOAD,2022-09-27 14:00:01,15.67646869,0.0001032999999999,53.2169,161.89700000000005,121.693,253.5967,-0.01206,-0.01208619,0.0,0 STARLINK-4662,1 53738U 22107AQ  22270.58334491 -.01208619  00000-0 -12060-1 0  9997,2 53738  53.2169 161.8970 0001033 121.6930 253.5967 15.67646869  1304,6743.774,91.857,366.336,364.942,0.0
53738.0,STARLINK-4662,PAYLOAD,2022-09-27 22:00:01,15.66819062,0.0001225,53.2172,160.2632,128.4117,328.6429,-0.012897,-0.0124532,0.0,0 STARLINK-4662,1 53738U 22107AQ  22270.91668981 -.01245320  00000-0 -12897-1 0  9996,2 53738  53.2172 160.2632 0001225 128.4117 328.6429 15.66819062  1304,6746.149,91.906,368.841,367.18800000000016,0.0
53738.0,STARLINK-4662,PAYLOAD,2022-09-28 06:00:00,15.65922386,0.0001409,53.2173,158.6306,126.8315,50.8654,-0.012786,-0.01195854,0.0,0 STARLINK-4662,1 53738U 22107AQ  22271.25001157 -.01195854  00000-0 -12786-1 0  9993,2 53738  53.2173 158.6306 0001409 126.8315  50.8654 15.65922386  3758,6748.724,91.959,371.54,369.638,0.0
53738.0,STARLINK-4662,PAYLOAD,2022-09-28 14:00:01,15.65062628,0.0001237,53.2174,156.9979,113.1393,144.2156,-0.013183,-0.01191356,0.0,0 STARLINK-4662,1 53738U 22107AQ  22271.58334491 -.01191356  00000-0 -13183-1 0  9994,2 53738  53.2174 156.9979 0001237 113.1393 144.2156 15.65062628  1308,6751.196,92.009,373.896,372.226,0.0
53738.0,STARLINK-4662,PAYLOAD,2022-09-28 22:00:00,15.64221563,0.0001323,53.217,155.371,133.868,202.1035,-0.013894,-0.01211776,0.0,0 STARLINK-4662,1 53738U 22107AQ  22271.91667824 -.01211776  00000-0 -13894-1 0  9998,2 53738  53.2170 155.3710 0001323 133.8680 202.1035 15.64221563  1308,6753.615,92.059,376.374,374.587,0.0
53738.0,STARLINK-4662,PAYLOAD,2022-09-29 14:00:01,15.62492142,0.00014,53.2172,152.1182,128.5049,1.6375,-0.014615,-0.01192368,0.0,0 STARLINK-4662,1 53738U 22107AQ  22272.58334491 -.01192368  00000-0 -14615-1 0  9990,2 53738  53.2172 152.1182 0001400 128.5049   1.6375 15.62492142  1304,6758.598000000001,92.16,381.409,379.517,0.0
53738.0,STARLINK-4662,PAYLOAD,2022-09-29 20:00:01,15.6184855,0.0001147999999999,53.2174,150.9025,105.9679,350.9873,-0.014957,-0.01189994,0.0,0 STARLINK-4662,1 53738U 22107AQ  22272.83335648 -.01189994  00000-0 -14957-1 0  9993,2 53738  53.2174 150.9025 0001148 105.9679 350.9873 15.61848550  4005,6760.455,92.198,383.096,381.543,0.0
53738.0,STARLINK-4662,PAYLOAD,2022-09-29 22:00:00,15.61660662,0.0001588,53.2168,150.4976,127.963,77.7005,-0.0155449999999999,-0.01224049,0.0,0 STARLINK-4662,1 53738U 22107AQ  22272.91667824 -.01224049  00000-0 -15545-1 0  9991,2 53738  53.2168 150.4976 0001588 127.9630  77.7005 15.61660662  1304,6760.996999999999,92.21,383.935,381.788,0.0
53738.0,STARLINK-4662,PAYLOAD,2022-09-30 14:00:01,15.59936965,0.0001092,53.2167,147.2575,114.3271,239.324,-0.016434,-0.01211507,0.0,0 STARLINK-4662,1 53738U 22107AQ  22273.58334491 -.01211507  00000-0 -16434-1 0  9999,2 53738  53.2167 147.2575 0001092 114.3271 239.3240 15.59936965  1309,6765.976,92.311,388.58,387.102,0.0
53738.0,STARLINK-4662,PAYLOAD,2022-09-30 16:00:00,15.5970798,0.0001164,53.2172,146.8532,103.9837,357.8829,-0.016279,-0.01191763,0.0,0 STARLINK-4662,1 53738U 22107AQ  22273.66667824 -.01191763  00000-0 -16279-1 0  9995,2 53738  53.2172 146.8532 0001164 103.9837 357.8829 15.59707980  4131,6766.639,92.325,389.291,387.716,0.0
53738.0,STARLINK-4662,PAYLOAD,2022-09-30 22:00:00,15.59077541,0.0001378,53.2171,145.6427,128.1507,297.9471,-0.01694,-0.01208694,0.0,0 STARLINK-4662,1 53738U 22107AQ  22273.91667824 -.01208694  00000-0 -16940-1 0  9990,2 53738  53.2171 145.6427 0001378 128.1507 297.9471 15.59077541  1306,6768.4630000000025,92.362,391.26,389.395,0.0
53738.0,STARLINK-4662,PAYLOAD,2022-10-01 14:00:01,15.57348819,0.0001369,53.2174,142.4147,114.2476,93.6601,-0.017763,-0.01188996,0.0,0 STARLINK-4662,1 53738U 22107AQ  22274.58334491 -.01188996  00000-0 -17763-1 0  9991,2 53738  53.2174 142.4147 0001369 114.2476  93.6601 15.57348819  1307,6773.47,92.465,396.263,394.408,0.0
53738.0,STARLINK-4662,PAYLOAD,2022-10-01 22:00:00,15.56501724,0.0001441999999999,53.2169,140.8068,128.2212,149.036,-0.018557,-0.01201766,0.0,0 STARLINK-4662,1 53738U 22107AQ  22274.91667824 -.01201766  00000-0 -18557-1 0  9990,2 53738  53.2169 140.8068 0001442 128.2212 149.0360 15.56501724  1303,6775.928000000001,92.515,398.77,396.816,0.0
53738.0,STARLINK-4662,PAYLOAD,2022-10-02 06:00:00,15.55648922,0.0001237,53.2165,139.1984,122.3743,223.2075,-0.019269,-0.01207939,0.0,0 STARLINK-4662,1 53738U 22107AQ  22275.25001157 -.01207939  00000-0 -19269-1 0  9998,2 53738  53.2165 139.1984 0001237 122.3743 223.2075 15.55648922  4372,6778.404,92.566,401.107,399.43,0.0
53738.0,STARLINK-4662,PAYLOAD,2022-10-02 14:00:01,15.54790424,0.0001193999999999,53.2165,137.5912,115.0765,297.8014,-0.019822,-0.01222751,0.0,0 STARLINK-4662,1 53738U 22107AQ  22275.58334491 -.01222751  00000-0 -19822-1 0  9998,2 53738  53.2165 137.5912 0001194 115.0765 297.8014 15.54790424  1304,6780.899,92.617,403.574,401.954,0.0
53738.0,STARLINK-4662,PAYLOAD,2022-10-02 22:00:00,15.53955375,0.0001457,53.2168,135.9892,124.9702,354.1625,-0.0210069999999999,-0.01253622,0.0,0 STARLINK-4662,1 53738U 22107AQ  22275.91667824 -.01253622  00000-0 -21007-1 0  9993,2 53738  53.2168 135.9892 0001457 124.9702 354.1625 15.53955375  1300,6783.328,92.667,406.181,404.205,0.0
53738.0,STARLINK-4662,PAYLOAD,2022-10-03 06:00:00,15.53126096,0.0001329,53.2165,134.387,114.7184,69.6367,-0.0223669999999999,-0.01290972,0.0,0 STARLINK-4662,1 53738U 22107AQ  22276.25001157 -.01290972  00000-0 -22367-1 0  9991,2 53738  53.2165 134.3870 0001329 114.7184  69.6367 15.53126096  4534,6785.7419999999975,92.716,408.509,406.705,0.0
